{
  "type": "FeatureCollection",
  "features": [
    {
      "type": "Feature",
      "geometry": {
        "type": "Point",
        "coordinates": [
          -43.0,
          -23.0
        ]
      },
      "properties": {
        "name": "Rio de Janeiro",
        "stationCode": "",
        "arrive": "",
        "departure": "",
        "duration": "",
        "comments": "Rio de Janeiro, Brazil (start)",
        "depth": ""
      }
    },
    {
      "type": "Feature",
      "geometry": {
        "type": "Point",
        "coordinates": [
          -37.7289101976284,
          -26.2360191304347
        ]
      },
      "properties": {
        "name": "S01",
        "stationCode": "",
        "arrive": "",
        "departure": "",
        "duration": "",
        "comments": "",
        "depth": ""
      }
    },
    {
      "type": "Feature",
      "geometry": {
        "type": "Point",
        "coordinates": [
          -37.3231622815534,
          -23.7699887864077
        ]
      },
      "properties": {
        "name": "S02",
        "stationCode": "",
        "arrive": "",
        "departure": "",
        "duration": "",
        "comments": "",
        "depth": ""
      }
    },
    {
      "type": "Feature",
      "geometry": {
        "type": "Point",
        "coordinates": [
          -38.6621033333333,
          -25.7315014583333
        ]
      },
      "properties": {
        "name": "S03",
        "stationCode": "",
        "arrive": "",
        "departure": "",
        "duration": "",
        "comments": "",
        "depth": ""
      }
    },
    {
      "type": "Feature",
      "geometry": {
        "type": "Point",
        "coordinates": [
          -37.7697226126126,
          -26.0515665765765
        ]
      },
      "properties": {
        "name": "S04",
        "stationCode": "",
        "arrive": "",
        "departure": "",
        "duration": "",
        "comments": "",
        "depth": ""
      }
    },
    {
      "type": "Feature",
      "geometry": {
        "type": "Point",
        "coordinates": [
          -33.2836566666666,
          -25.45137625
        ]
      },
      "properties": {
        "name": "S05",
        "stationCode": "",
        "arrive": "",
        "departure": "",
        "duration": "",
        "comments": "",
        "depth": ""
      }
    },
    {
      "type": "Feature",
      "geometry": {
        "type": "Point",
        "coordinates": [
          -30.271165,
          -25.226075
        ]
      },
      "properties": {
        "name": "S06",
        "stationCode": "",
        "arrive": "",
        "departure": "",
        "duration": "",
        "comments": "",
        "depth": ""
      }
    },
    {
      "type": "Feature",
      "geometry": {
        "type": "Point",
        "coordinates": [
          -28.6573181948424,
          -25.0603991977077
        ]
      },
      "properties": {
        "name": "S07",
        "stationCode": "",
        "arrive": "",
        "departure": "",
        "duration": "",
        "comments": "",
        "depth": ""
      }
    },
    {
      "type": "Feature",
      "geometry": {
        "type": "Point",
        "coordinates": [
          -27.46786,
          -23.9307183333333
        ]
      },
      "properties": {
        "name": "S08",
        "stationCode": "",
        "arrive": "",
        "departure": "",
        "duration": "",
        "comments": "",
        "depth": ""
      }
    },
    {
      "type": "Feature",
      "geometry": {
        "type": "Point",
        "coordinates": [
          -25.3323738888888,
          -21.5175175
        ]
      },
      "properties": {
        "name": "S09",
        "stationCode": "",
        "arrive": "",
        "departure": "",
        "duration": "",
        "comments": "",
        "depth": ""
      }
    },
    {
      "type": "Feature",
      "geometry": {
        "type": "Point",
        "coordinates": [
          -25.2540612166172,
          -17.9153067062314
        ]
      },
      "properties": {
        "name": "S10",
        "stationCode": "",
        "arrive": "",
        "departure": "",
        "duration": "",
        "comments": "",
        "depth": ""
      }
    },
    {
      "type": "Feature",
      "geometry": {
        "type": "Point",
        "coordinates": [
          -25.7417729166666,
          -17.9680658333333
        ]
      },
      "properties": {
        "name": "S11",
        "stationCode": "",
        "arrive": "",
        "departure": "",
        "duration": "",
        "comments": "",
        "depth": ""
      }
    },
    {
      "type": "Feature",
      "geometry": {
        "type": "Point",
        "coordinates": [
          -26.3045816666666,
          -17.7547116666666
        ]
      },
      "properties": {
        "name": "S12",
        "stationCode": "",
        "arrive": "",
        "departure": "",
        "duration": "",
        "comments": "",
        "depth": ""
      }
    },
    {
      "type": "Feature",
      "geometry": {
        "type": "Point",
        "coordinates": [
          -29.5224641666666,
          -16.4565183333333
        ]
      },
      "properties": {
        "name": "S13",
        "stationCode": "",
        "arrive": "",
        "departure": "",
        "duration": "",
        "comments": "",
        "depth": ""
      }
    },
    {
      "type": "Feature",
      "geometry": {
        "type": "Point",
        "coordinates": [
          -32.2578945833333,
          -15.4355029166666
        ]
      },
      "properties": {
        "name": "S14",
        "stationCode": "",
        "arrive": "",
        "departure": "",
        "duration": "",
        "comments": "",
        "depth": ""
      }
    },
    {
      "type": "Feature",
      "geometry": {
        "type": "Point",
        "coordinates": [
          -39.0,
          -13.0
        ]
      },
      "properties": {
        "name": "Salvador",
        "stationCode": "",
        "arrive": "",
        "departure": "",
        "duration": "",
        "comments": "Salvador, Brazil (end)",
        "depth": ""
      }
    }
  ]
}